[{"OBJECT_NAME":"TIANMU-1 12","OBJECT_ID":"2023-205B","EPOCH":"2026-03-09T23:16:21.235872","MEAN_MOTION":15.25812065,"ECCENTRICITY":0.00067383,"INCLINATION":97.3538,"RA_OF_ASC_NODE":91.8946,"ARG_OF_PERICENTER":353.283,"MEAN_ANOMALY":6.8317,"EPHEMERIS_TYPE":0,"CLASSIFICATION_TYPE":"U","NORAD_CAT_ID":58646,"ELEMENT_SET_NO":999,"REV_AT_EPOCH":12237,"BSTAR":0.00029269543,"MEAN_MOTION_DOT":7.417e-5,"MEAN_MOTION_DDOT":0},{"OBJECT_NAME":"STARLINK-31549","OBJECT_ID":"2024-060N","EPOCH":"2026-03-09T13:01:16.445280","MEAN_MOTION":15.2757319,"ECCENTRICITY":0.00013349,"INCLINATION":43.001,"RA_OF_ASC_NODE":260.4047,"ARG_OF_PERICENTER":282.4267,"MEAN_ANOMALY":77.6435,"EPHEMERIS_TYPE":0,"CLASSIFICATION_TYPE":"U","NORAD_CAT_ID":59360,"ELEMENT_SET_NO":999,"REV_AT_EPOCH":11004,"BSTAR":1.6321756e-5,"MEAN_MOTION_DOT":1.87e-6,"MEAN_MOTION_DDOT":0}]
